[{"OBJECT_NAME":"STARLINK-32679","OBJECT_ID":"2025-003W","EPOCH":"2026-03-09T00:21:07.320384","MEAN_MOTION":15.27616229,"ECCENTRICITY":0.00012968,"INCLINATION":43.0015,"RA_OF_ASC_NODE":293.1482,"ARG_OF_PERICENTER":271.2196,"MEAN_ANOMALY":88.8507,"EPHEMERIS_TYPE":0,"CLASSIFICATION_TYPE":"U","NORAD_CAT_ID":62507,"ELEMENT_SET_NO":999,"REV_AT_EPOCH":6656,"BSTAR":0.0013254356,"MEAN_MOTION_DOT":0.00036432,"MEAN_MOTION_DDOT":0},{"OBJECT_NAME":"CZ-6A R\/B","OBJECT_ID":"2023-168B","EPOCH":"2026-03-09T21:13:08.722272","MEAN_MOTION":15.16100791,"ECCENTRICITY":0.00607667,"INCLINATION":97.7542,"RA_OF_ASC_NODE":104.7688,"ARG_OF_PERICENTER":339.2379,"MEAN_ANOMALY":20.6386,"EPHEMERIS_TYPE":0,"CLASSIFICATION_TYPE":"U","NORAD_CAT_ID":58200,"ELEMENT_SET_NO":999,"REV_AT_EPOCH":12979,"BSTAR":0.00029693841,"MEAN_MOTION_DOT":5.919e-5,"MEAN_MOTION_DDOT":0}]
